OBJECT_NAME,OBJECT_ID,EPOCH,MEAN_MOTION,ECCENTRICITY,INCLINATION,RA_OF_ASC_NODE,ARG_OF_PERICENTER,MEAN_ANOMALY,EPHEMERIS_TYPE,CLASSIFICATION_TYPE,NORAD_CAT_ID,ELEMENT_SET_NO,REV_AT_EPOCH,BSTAR,MEAN_MOTION_DOT,MEAN_MOTION_DDOT
QIANFAN-204,2026-153D,2026-07-23T13:34:42.684384,14.20115873,.00086515,88.9931,358.0922,153.5591,206.6042,0,U,69803,999,273,.64992658E-4,.153E-5,0
QIANFAN-205,2026-153E,2026-07-23T13:33:47.289888,14.18483117,.00085164,88.9930,358.0918,151.2580,208.9080,0,U,69804,999,273,.57473644E-4,.133E-5,0
QIANFAN-206,2026-153F,2026-07-23T13:13:42.956832,14.18783334,.00087138,88.9931,358.0898,152.5356,207.6295,0,U,69805,999,273,.58009925E-4,.135E-5,0
QIANFAN-207,2026-153G,2026-07-23T13:06:46.553760,14.19832155,.0008306,88.9931,358.0892,149.7333,210.4338,0,U,69806,999,273,.75918184E-4,.175E-5,0
QIANFAN-208,2026-153H,2026-07-23T12:50:15.355680,14.22847246,.00093648,88.9930,358.0874,155.0347,205.1299,0,U,69807,999,273,.70302052E-4,.172E-5,0
QIANFAN-209,2026-153J,2026-07-23T13:14:41.265600,14.19691758,.00085832,88.9931,358.0900,150.6848,209.4825,0,U,69808,999,273,.73802734E-4,.17E-5,0
QIANFAN-210,2026-153K,2026-07-23T13:07:02.251776,14.19937861,.0008751,88.9932,358.0893,152.8785,207.2864,0,U,69809,999,273,.83002807E-4,.191E-5,0
QIANFAN-211,2026-153L,2026-07-23T13:05:23.101728,14.20224655,.00081384,88.9931,358.0889,151.5834,208.5802,0,U,69810,999,273,.60459601E-4,.144E-5,0
QIANFAN-212,2026-153M,2026-07-23T12:55:24.642624,14.20820325,.00092965,88.9931,358.0878,156.3360,203.8260,0,U,69811,999,273,.37518709E-4,.96E-6,0
QIANFAN-213,2026-153N,2026-07-23T12:52:51.100320,14.21099713,.00082104,88.9931,358.0875,151.9574,208.2060,0,U,69812,999,273,.37191338E-4,.95E-6,0
QIANFAN-214,2026-153P,2026-07-23T14:14:47.443488,14.25492830,.00088751,88.9930,358.0776,156.7835,203.3761,0,U,69813,999,274,.62409556E-4,.162E-5,0
QIANFAN-215,2026-153Q,2026-07-23T14:09:27.506016,14.26680785,.0008896,88.9930,358.0767,158.4451,201.7119,0,U,69814,999,274,.54436905E-4,.146E-5,0
QIANFAN-216,2026-153R,2026-07-23T14:09:26.674848,14.26677782,.00091343,88.9931,358.0769,158.8441,201.3132,0,U,69815,999,274,.74869485E-4,.196E-5,0
QIANFAN-217,2026-153S,2026-07-23T14:08:18.400704,14.26768941,.00086394,88.9929,358.0766,156.3671,203.7921,0,U,69816,999,274,.38769002E-4,.109E-5,0
QIANFAN-218,2026-153T,2026-07-23T14:07:29.371296,14.26812860,.00084031,88.9932,358.0771,153.9355,206.2264,0,U,69817,999,274,.66389683E-4,.176E-5,0
STARLINK-37520,2026-154A,2026-07-23T14:28:26.995008,15.80932162,.00012684,53.1579,250.8143,44.5924,315.5200,0,U,69819,999,414,.87117509E-3,.175253E-2,0
STARLINK-37553,2026-154B,2026-07-23T14:27:22.004928,15.80993567,.00007516,53.1573,250.8094,63.6042,296.5058,0,U,69820,999,414,.15745726E-2,.323813E-2,0
STARLINK-37561,2026-154C,2026-07-23T12:55:15.391776,15.80953955,.00016501,53.1576,251.1211,73.0187,287.1017,0,U,69821,999,413,.15759427E-2,.323479E-2,0
STARLINK-37521,2026-154D,2026-07-23T14:25:12.381600,15.80989519,.0000976,53.1575,250.7992,62.0379,298.0743,0,U,69822,999,414,.15323946E-2,.31472E-2,0
STARLINK-37628,2026-154E,2026-07-23T09:51:01.077696,15.80906696,.000111,53.1580,251.7447,90.6624,269.4526,0,U,69823,999,411,.16013714E-2,.328181E-2,0
STARLINK-37695,2026-154F,2026-07-23T14:14:23.927136,15.80959930,.00047136,53.1577,250.7488,157.9947,202.1279,0,U,69824,999,414,.20900195E-2,.4351E-2,0
STARLINK-37690,2026-154G,2026-07-23T14:21:58.092192,15.80941059,.00013016,53.1575,250.7842,108.4698,251.6466,0,U,69825,999,414,.98102517E-3,.198049E-2,0
STARLINK-37710,2026-154H,2026-07-23T14:20:53.172960,15.80954225,.00012642,53.1578,250.7777,111.3363,248.7794,0,U,69826,999,414,.11558357E-2,.234607E-2,0
STARLINK-38031,2026-154J,2026-07-23T14:19:48.424800,15.80931671,.00010493,53.1582,250.7730,118.3495,241.7634,0,U,69827,999,414,.88618762E-3,.178346E-2,0
STARLINK-38001,2026-154K,2026-07-23T12:47:41.402112,15.80984806,.00008659,53.1581,251.0858,48.2899,311.8197,0,U,69828,999,413,.14015593E-2,.286786E-2,0
STARLINK-37622,2026-154L,2026-07-23T14:17:38.727168,15.80945092,.00011056,53.1584,250.7634,63.2206,296.8930,0,U,69829,999,414,.70875434E-3,.14198E-2,0
STARLINK-37621,2026-154M,2026-07-23T08:12:24.714144,15.81181135,.0003772,53.1581,252.0250,176.5933,183.5117,0,U,69830,999,410,.21738596E-2,.4584E-2,0
STARLINK-37918,2026-154N,2026-07-23T12:44:27.220704,15.80916591,.00016504,53.1578,251.0705,99.1371,260.9838,0,U,69831,999,413,.17729649E-2,.365164E-2,0
STARLINK-37887,2026-154P,2026-07-23T12:43:10.699680,15.81471026,.00216271,53.1574,251.0635,41.3754,318.8902,0,U,69832,999,413,.2009403E-1,.4929663E-1,0
