QIANFAN-204             
1 69803U 26153D   26204.56577181  .00000153  00000+0  64993-4 0  9990
2 69803  88.9931 358.0922 0008651 153.5591 206.6042 14.20115873  2738
QIANFAN-205             
1 69804U 26153E   26204.56513067  .00000133  00000+0  57474-4 0  9998
2 69804  88.9930 358.0918 0008516 151.2580 208.9080 14.18483117  2739
QIANFAN-206             
1 69805U 26153F   26204.55119163  .00000135  00000+0  58010-4 0  9996
2 69805  88.9931 358.0898 0008713 152.5356 207.6295 14.18783334  2730
QIANFAN-207             
1 69806U 26153G   26204.54637215  .00000175  00000+0  75918-4 0  9999
2 69806  88.9931 358.0892 0008306 149.7333 210.4338 14.19832155  2733
QIANFAN-208             
1 69807U 26153H   26204.53489995  .00000172  00000+0  70302-4 0  9998
2 69807  88.9930 358.0874 0009364 155.0347 205.1299 14.22847246  2731
QIANFAN-209             
1 69808U 26153J   26204.55186650  .00000170  00000+0  73803-4 0  9990
2 69808  88.9931 358.0900 0008583 150.6848 209.4825 14.19691758  2735
QIANFAN-210             
1 69809U 26153K   26204.54655384  .00000191  00000+0  83003-4 0  9991
2 69809  88.9932 358.0893 0008751 152.8785 207.2864 14.19937861  2736
QIANFAN-211             
1 69810U 26153L   26204.54540627  .00000144  00000+0  60460-4 0  9996
2 69810  88.9931 358.0889 0008138 151.5834 208.5802 14.20224655  2730
QIANFAN-212             
1 69811U 26153M   26204.53847966  .00000096  00000+0  37519-4 0  9997
2 69811  88.9931 358.0878 0009296 156.3360 203.8260 14.20820325  2734
QIANFAN-213             
1 69812U 26153N   26204.53670255  .00000095  00000+0  37191-4 0  9998
2 69812  88.9931 358.0875 0008210 151.9574 208.2060 14.21099713  2732
QIANFAN-214             
1 69813U 26153P   26204.59360467  .00000162  00000+0  62410-4 0  9993
2 69813  88.9930 358.0776 0008875 156.7835 203.3761 14.25492830  2748
QIANFAN-215             
1 69814U 26153Q   26204.58990169  .00000146  00000+0  54437-4 0  9993
2 69814  88.9930 358.0767 0008896 158.4451 201.7119 14.26680785  2743
QIANFAN-216             
1 69815U 26153R   26204.58989207  .00000196  00000+0  74869-4 0  9991
2 69815  88.9931 358.0769 0009134 158.8441 201.3132 14.26677782  2740
QIANFAN-217             
1 69816U 26153S   26204.58910186  .00000109  00000+0  38769-4 0  9995
2 69816  88.9929 358.0766 0008639 156.3671 203.7921 14.26768941  2742
QIANFAN-218             
1 69817U 26153T   26204.58853439  .00000176  00000+0  66390-4 0  9998
2 69817  88.9932 358.0771 0008403 153.9355 206.2264 14.26812860  2742
STARLINK-37520          
1 69819U 26154A   26204.60309022  .00175253  00000+0  87118-3 0  9997
2 69819  53.1579 250.8143 0001268  44.5924 315.5200 15.80932162  4145
STARLINK-37553          
1 69820U 26154B   26204.60233802  .00323813  00000+0  15746-2 0  9995
2 69820  53.1573 250.8094 0000751  63.6042 296.5058 15.80993567  4140
STARLINK-37561          
1 69821U 26154C   26204.53837259  .00323479  00000+0  15759-2 0  9996
2 69821  53.1576 251.1211 0001650  73.0187 287.1017 15.80953955  4130
STARLINK-37521          
1 69822U 26154D   26204.60083775  .00314720  00000+0  15324-2 0  9998
2 69822  53.1575 250.7992 0000976  62.0379 298.0743 15.80989519  4145
STARLINK-37628          
1 69823U 26154E   26204.41042914  .00328181  00000+0  16014-2 0  9991
2 69823  53.1580 251.7447 0001110  90.6624 269.4526 15.80906696  4112
STARLINK-37695          
1 69824U 26154F   26204.59333249  .00435100  00000+0  20900-2 0  9994
2 69824  53.1577 250.7488 0004713 157.9947 202.1279 15.80959930  4141
STARLINK-37690          
1 69825U 26154G   26204.59858903  .00198049  00000+0  98103-3 0  9993
2 69825  53.1575 250.7842 0001301 108.4698 251.6466 15.80941059  4148
STARLINK-37710          
1 69826U 26154H   26204.59783765  .00234607  00000+0  11558-2 0  9996
2 69826  53.1578 250.7777 0001264 111.3363 248.7794 15.80954225  4149
STARLINK-38031          
1 69827U 26154J   26204.59708825  .00178346  00000+0  88619-3 0  9991
2 69827  53.1582 250.7730 0001049 118.3495 241.7634 15.80931671  4144
STARLINK-38001          
1 69828U 26154K   26204.53311808  .00286786  00000+0  14016-2 0  9994
2 69828  53.1581 251.0858 0000865  48.2899 311.8197 15.80984806  4133
STARLINK-37622          
1 69829U 26154L   26204.59558712  .00141980  00000+0  70875-3 0  9990
2 69829  53.1584 250.7634 0001105  63.2206 296.8930 15.80945092  4144
STARLINK-37621          
1 69830U 26154M   26204.34195271  .00458400  00000+0  21739-2 0  9994
2 69830  53.1581 252.0250 0003772 176.5933 183.5117 15.81181135  4105
STARLINK-37918          
1 69831U 26154N   26204.53087061  .00365164  00000+0  17730-2 0  9993
2 69831  53.1578 251.0705 0001650  99.1371 260.9838 15.80916591  4139
STARLINK-37887          
1 69832U 26154P   26204.52998495  .04929663  00000+0  20094-1 0  9995
2 69832  53.1574 251.0635 0021627  41.3754 318.8902 15.81471026  4133
